#aV2012  8  7  0  0  0.00000000     288 DD+AD WGS84 FIT  NGA
## 1700 172800.00000000   300.00000000 56146 0.0000000000000
+   31     1  2  3  4  5  6  7  8  9 10 11 12 13 14 15 16 17
+         18 19 20 21 22 23 25 26 27 28 29 30 31 32  0  0  0
+          0  0  0  0  0  0  0  0  0  0  0  0  0  0  0  0  0
+          0  0  0  0  0  0  0  0  0  0  0  0  0  0  0  0  0
+          0  0  0  0  0  0  0  0  0  0  0  0  0  0  0  0  0
++         2  2  2  2  2  2  2  2  2  2  2  2  2  2  2  2  2
++         2  2  2  2  2  2  2  2  2  2  2  2  2  2  2  0  0
++         0  0  0  0  0  0  0  0  0  0  0  0  0  0  0  0  0
++         0  0  0  0  0  0  0  0  0  0  0  0  0  0  0  0  0
++         0  0  0  0  0  0  0  0  0  0  0  0  0  0  0  0  0
%c cc cc ccc ccc cccc cccc cccc cccc ccccc ccccc ccccc ccccc
%c cc cc ccc ccc cccc cccc cccc cccc ccccc ccccc ccccc ccccc
%f  0.0000000  0.000000000  0.00000000000  0.000000000000000
%f  0.0000000  0.000000000  0.00000000000  0.000000000000000
%i    0    0    0    0      0      0      0      0         0
%i    0    0    0    0      0      0      0      0         0
/*      NGA, ST. LOUIS,MO.                                  
/*   EPHEMERIS COMPUTED FROM  1 DAYS OF DATA
/*   EPOCHA SMOOTHER  
/* CCCCCCCCCCCCCCCCCCCCCCCCCCCCCCCCCCCCCCCCCCCCCCCCCCCCCCCCC
*  2012  8  7 18 30  0.00000000                                                 
P  1  14185.946911 -22148.090149   3501.211051    268.697781                    
V  1    479.607616   5271.649225  31359.182937      0.015035                    
P  2 -17468.446707   3126.005744 -19467.656051    399.187738                    
V  2   9701.359678 -23383.176237 -12873.801491      0.011480                    
P  3  19454.642886   2856.649420  17487.522095     85.243079                    
V  3  13413.806859  19005.311591 -17282.617244      0.048429                    
P  4 -12110.924799 -10642.201501 -21330.647905    267.345176                    
V  4  12813.085530 -23339.803238   4733.868333      0.113539                    
P  5 -26557.801323   1808.465451    825.800879   -341.591606                    
V  5  -1205.607726  -2993.813332 -31407.409081     -0.033096                    
P  6  20067.102066   8125.342981  15701.674416     -5.030439                    
V  6   9778.053187  17211.969631 -21240.287680     -0.066016                    
P  7   5354.958005 -23935.749714   9855.049972    108.485158                    
V  7   7983.566968  -9948.828995 -28838.160017      0.039802                    
P  8  -4479.507661 -16715.509788  20030.018262      1.934806                    
V  8  14738.957459 -20675.322900 -14578.354897      0.001719                    
P  9 -15546.606203  20157.187309   7121.918692    177.099054                    
V  9   2627.521747  -9609.068066  30507.960123      0.026391                    
P 10 -19916.860264 -10237.151196 -14839.863779    -47.445740                    
V 10  18224.021344  -2530.318507 -22715.863480     -0.012629                    
P 11  13167.328467 -19871.871099  10993.187872   -289.809503                    
V 11   1545.679737  15463.015845  25509.651381     -0.040080                    
P 12 -17288.146623  11401.180998 -16536.221752     84.178626                    
V 12 -21022.394166  -1176.368473  21374.544327      0.020501                    
P 13  -3332.425194 -23590.528708 -11758.004398    189.497878                    
V 13   8298.447449  12287.370529 -27429.826517     -0.024978                    
P 14  14755.145048  21852.858098  -3628.722026    209.321632                    
V 14    436.857938   5248.877459  31591.119553      0.010988                    
P 15 -11633.208354  10483.807223  21432.560271    -93.426969                    
V 15 -15535.779935 -22459.251650   2767.133468     -0.005154                    
P 16  26716.919952   -551.870614    816.040204   -243.142386                    
V 16   1032.073089   1899.641515 -31968.704810     -0.009524                    
P 17 -15045.803168 -21850.854132  -2746.452916    106.957507                    
V 17    308.836538  -4452.089646  31410.323092     -0.030864                    
P 18   3735.165869  15859.520193  21382.451025    208.979758                    
V 18 -26350.277439   1220.862713   3398.100316      0.018102                    
P 19  13423.017837  -7089.100708  21730.073734   -292.147753                    
V 19  12942.952746  24539.681831    404.269695     -0.036298                    
P 20  13607.725193 -14521.736530 -17714.612338     65.871664                    
V 20  22418.534637     95.541945  17363.022478      0.006197                    
P 21  -1254.583220  23130.260403  12968.759939   -241.680571                    
V 21 -10300.012716  12622.873482 -25040.838046     -0.024596                    
P 22  18388.899438  11247.768775  15790.333559    146.343292                    
V 22 -19666.714523   3149.566941  20780.836097      0.004359                    
P 23   5559.601827 -16967.627708 -19486.438243    177.443053                    
V 23  14397.747132  20464.503723 -14058.053728     -0.039093                    
P 25  -3261.035156  15065.167545 -21664.716677     39.121158                    
V 25 -27374.299345   1046.097378   4918.318902      0.009725                    
P 26 -16872.307969  -4118.388452  19585.908202   -322.219913                    
V 26 -11252.107336 -23537.488007 -13855.549445      0.121248                    
P 27 -17034.085037  15899.377615  12841.077767    417.667804                    
V 27   4885.158627 -14844.106965  26594.897490      0.042629                    
P 28 -15237.877156 -12494.472733  18467.367497    172.869812                    
V 28  22203.669577   -837.778153  18102.146168      0.038472                    
P 29    447.063990  21806.977331 -15125.356878    341.742620                    
V 29 -11309.191676 -15743.909228 -22901.828222      0.039908                    
P 30  24226.006645   3896.591347 -10516.491129   -347.984266                    
V 30 -12344.168204   4231.120271 -27847.060001     -0.243068                    
P 31  12335.751153   8015.982770 -21918.858781    265.899547                    
V 31 -13684.938388  24697.826313   1554.745359      0.026316                    
P 32  21589.521885  -8050.052667 -12569.667616   -473.977740                    
V 32  16348.510208   3662.506310  25812.894554     -0.042927                    
EOF
